start=new Date('2021-12-13T00:00:00.000Z').valueOf();
sats=[{"EPHEMERIS_TYPE":"0","INCLINATION":"53.0529","ARG_OF_PERICENTER":"84.8997","SITE":"AFETR","APOAPSIS":"548.864","REF_FRAME":"TEME","OBJECT_ID":"2020-025AH","EPOCH":"2021-12-12T20:32:02.219136","TIME_SYSTEM":"UTC","LAUNCH_DATE":"2020-04-22","ECCENTRICITY":"0.00023420","COUNTRY_CODE":"US","PERIAPSIS":"545.620","MEAN_MOTION_DOT":"0.00000270","ELEMENT_SET_NO":"999","TLE_LINE1":"1 45562U 20025AH  21346.85558124  .00000270  00000-0  37037-4 0  9998","SEMIMAJOR_AXIS":"6925.377","GP_ID":"191584877","CLASSIFICATION_TYPE":"U","TLE_LINE2":"2 45562  53.0529 195.1176 0002342  84.8997 275.2259 15.06390722 92079","OBJECT_NAME":"STARLINK-1354","MEAN_MOTION_DDOT":"0.0000000000000","OBJECT_TYPE":"PAYLOAD","MEAN_MOTION":"15.06390722","MEAN_ANOMALY":"275.2259","BSTAR":"0.00003703700000","MEAN_ELEMENT_THEORY":"SGP4","DECAY_DATE":null,"PERIOD":"95.593","RCS_SIZE":"LARGE","NORAD_CAT_ID":"45562","CENTER_NAME":"EARTH","REV_AT_EPOCH":"9207","RA_OF_ASC_NODE":"195.1176","FILE":"3238376"},{"CLASSIFICATION_TYPE":"U","TLE_LINE2":"2 45563  53.0540 195.0588 0002344  82.3233 277.8022 15.06394813 92078","ELEMENT_SET_NO":"999","TLE_LINE1":"1 45563U 20025AJ  21346.87032145  .00000385  00000-0  44766-4 0  9995","SEMIMAJOR_AXIS":"6925.364","GP_ID":"191585123","OBJECT_TYPE":"PAYLOAD","OBJECT_NAME":"STARLINK-1355","MEAN_MOTION_DDOT":"0.0000000000000","MEAN_ANOMALY":"277.8022","MEAN_MOTION":"15.06394813","RA_OF_ASC_NODE":"195.0588","FILE":"3238376","REV_AT_EPOCH":"9207","NORAD_CAT_ID":"45563","CENTER_NAME":"EARTH","MEAN_ELEMENT_THEORY":"SGP4","BSTAR":"0.00004476600000","PERIOD":"95.592","DECAY_DATE":null,"RCS_SIZE":"LARGE","SITE":"AFETR","ARG_OF_PERICENTER":"82.3233","EPHEMERIS_TYPE":"0","INCLINATION":"53.0540","TIME_SYSTEM":"UTC","EPOCH":"2021-12-12T20:53:15.773280","REF_FRAME":"TEME","OBJECT_ID":"2020-025AJ","APOAPSIS":"548.853","ECCENTRICITY":"0.00023440","LAUNCH_DATE":"2020-04-22","PERIAPSIS":"545.606","MEAN_MOTION_DOT":"0.00000385","COUNTRY_CODE":"US"},{"ELEMENT_SET_NO":"999","TLE_LINE1":"1 45564U 20025AK  21346.86663829  .00000280  00000-0  37692-4 0  9998","SEMIMAJOR_AXIS":"6925.374","GP_ID":"191585379","CLASSIFICATION_TYPE":"U","TLE_LINE2":"2 45564  53.0524 195.0615 0002266  78.7417 281.3827 15.06391585 92074","OBJECT_NAME":"STARLINK-1356","MEAN_MOTION_DDOT":"0.0000000000000","OBJECT_TYPE":"PAYLOAD","MEAN_MOTION":"15.06391585","MEAN_ANOMALY":"281.3827","MEAN_ELEMENT_THEORY":"SGP4","BSTAR":"0.00003769200000","PERIOD":"95.593","DECAY_DATE":null,"RCS_SIZE":"LARGE","NORAD_CAT_ID":"45564","CENTER_NAME":"EARTH","REV_AT_EPOCH":"9207","RA_OF_ASC_NODE":"195.0615","FILE":"3238376","EPHEMERIS_TYPE":"0","INCLINATION":"53.0524","SITE":"AFETR","ARG_OF_PERICENTER":"78.7417","APOAPSIS":"548.809","REF_FRAME":"TEME","OBJECT_ID":"2020-025AK","EPOCH":"2021-12-12T20:47:57.548256","TIME_SYSTEM":"UTC","LAUNCH_DATE":"2020-04-22","ECCENTRICITY":"0.00022660","COUNTRY_CODE":"US","PERIAPSIS":"545.670","MEAN_MOTION_DOT":"0.00000280"},{"PERIAPSIS":"545.708","MEAN_MOTION_DOT":"0.00000414","COUNTRY_CODE":"US","ECCENTRICITY":"0.00021580","LAUNCH_DATE":"2020-04-22","TIME_SYSTEM":"UTC","EPOCH":"2021-12-12T20:37:18.346368","REF_FRAME":"TEME","OBJECT_ID":"2020-025AL","APOAPSIS":"548.697","ARG_OF_PERICENTER":"77.4428","SITE":"AFETR","EPHEMERIS_TYPE":"0","INCLINATION":"53.0532","RA_OF_ASC_NODE":"195.1028","FILE":"3238376","REV_AT_EPOCH":"9207","NORAD_CAT_ID":"45565","CENTER_NAME":"EARTH","BSTAR":"0.00004667900000","MEAN_ELEMENT_THEORY":"SGP4","DECAY_DATE":null,"RCS_SIZE":"LARGE","PERIOD":"95.592","MEAN_ANOMALY":"282.6802","MEAN_MOTION":"15.06403688","OBJECT_TYPE":"PAYLOAD","OBJECT_NAME":"STARLINK-1357","MEAN_MOTION_DDOT":"0.0000000000000","CLASSIFICATION_TYPE":"U","TLE_LINE2":"2 45565  53.0532 195.1028 0002158  77.4428 282.6802 15.06403688 92076","ELEMENT_SET_NO":"999","TLE_LINE1":"1 45565U 20025AL  21346.85924012  .00000414  00000-0  46679-4 0  9996","SEMIMAJOR_AXIS":"6925.337","GP_ID":"191584125"},{"APOAPSIS":"548.764","REF_FRAME":"TEME","OBJECT_ID":"2020-025AM","EPOCH":"2021-12-12T20:58:32.363616","TIME_SYSTEM":"UTC","EPHEMERIS_TYPE":"0","INCLINATION":"53.0533","ARG_OF_PERICENTER":"78.8902","SITE":"AFETR","COUNTRY_CODE":"US","PERIAPSIS":"545.625","MEAN_MOTION_DOT":"0.00000997","LAUNCH_DATE":"2020-04-22","ECCENTRICITY":"0.00022660","MEAN_MOTION_DDOT":"0.0000000000000","OBJECT_NAME":"STARLINK-1358","OBJECT_TYPE":"PAYLOAD","TLE_LINE1":"1 45566U 20025AM  21346.87398569  .00000997  00000-0  85841-4 0  9991","SEMIMAJOR_AXIS":"6925.330","ELEMENT_SET_NO":"999","GP_ID":"191584377","CLASSIFICATION_TYPE":"U","TLE_LINE2":"2 45566  53.0533 195.0428 0002266  78.8902 281.2342 15.06406213 92074","BSTAR":"0.00008584100000","MEAN_ELEMENT_THEORY":"SGP4","DECAY_DATE":null,"RCS_SIZE":"LARGE","PERIOD":"95.592","NORAD_CAT_ID":"45566","CENTER_NAME":"EARTH","REV_AT_EPOCH":"9207","RA_OF_ASC_NODE":"195.0428","FILE":"3238376","MEAN_MOTION":"15.06406213","MEAN_ANOMALY":"281.2342"},{"OBJECT_TYPE":"PAYLOAD","MEAN_MOTION_DDOT":"0.0000000000000","OBJECT_NAME":"STARLINK-1361","CLASSIFICATION_TYPE":"U","TLE_LINE2":"2 45567  53.0527 194.9830 0002330  80.5677 279.5575 15.06393875 92082","ELEMENT_SET_NO":"999","TLE_LINE1":"1 45567U 20025AN  21346.88505496 -.00001194  00000-0 -61275-4 0  9999","SEMIMAJOR_AXIS":"6925.367","GP_ID":"191585624","RA_OF_ASC_NODE":"194.9830","FILE":"3238376","REV_AT_EPOCH":"9208","NORAD_CAT_ID":"45567","CENTER_NAME":"EARTH","BSTAR":"-0.00006127500000","MEAN_ELEMENT_THEORY":"SGP4","PERIOD":"95.593","DECAY_DATE":null,"RCS_SIZE":"LARGE","MEAN_ANOMALY":"279.5575","MEAN_MOTION":"15.06393875","TIME_SYSTEM":"UTC","EPOCH":"2021-12-12T21:14:28.748544","REF_FRAME":"TEME","OBJECT_ID":"2020-025AN","APOAPSIS":"548.846","ARG_OF_PERICENTER":"80.5677","SITE":"AFETR","EPHEMERIS_TYPE":"0","INCLINATION":"53.0527","PERIAPSIS":"545.619","MEAN_MOTION_DOT":"-0.00001194","COUNTRY_CODE":"US","ECCENTRICITY":"0.00023300","LAUNCH_DATE":"2020-04-22"},{"ARG_OF_PERICENTER":"83.0630","SITE":"AFETR","EPHEMERIS_TYPE":"0","INCLINATION":"53.0535","TIME_SYSTEM":"UTC","EPOCH":"2021-12-12T21:02:31.161120","REF_FRAME":"TEME","OBJECT_ID":"2020-025AP","APOAPSIS":"548.802","ECCENTRICITY":"0.00022690","LAUNCH_DATE":"2020-04-22","PERIAPSIS":"545.659","MEAN_MOTION_DOT":"0.00000370","COUNTRY_CODE":"US","CLASSIFICATION_TYPE":"U","TLE_LINE2":"2 45568  53.0535 195.0268 0002269  83.0630 277.0617 15.06394533 92078","ELEMENT_SET_NO":"999","TLE_LINE1":"1 45568U 20025AP  21346.87674955  .00000370  00000-0  43782-4 0  9992","SEMIMAJOR_AXIS":"6925.365","GP_ID":"191585880","OBJECT_TYPE":"PAYLOAD","MEAN_MOTION_DDOT":"0.0000000000000","OBJECT_NAME":"STARLINK-1363","MEAN_ANOMALY":"277.0617","MEAN_MOTION":"15.06394533","RA_OF_ASC_NODE":"195.0268","FILE":"3238376","REV_AT_EPOCH":"9207","NORAD_CAT_ID":"45568","CENTER_NAME":"EARTH","BSTAR":"0.00004378200000","MEAN_ELEMENT_THEORY":"SGP4","PERIOD":"95.592","DECAY_DATE":null,"RCS_SIZE":"LARGE"},{"ECCENTRICITY":"0.00023170","LAUNCH_DATE":"2020-04-22","PERIAPSIS":"545.664","MEAN_MOTION_DOT":"0.00000397","COUNTRY_CODE":"US","ARG_OF_PERICENTER":"77.5154","SITE":"AFETR","EPHEMERIS_TYPE":"0","INCLINATION":"53.0534","TIME_SYSTEM":"UTC","EPOCH":"2021-12-12T21:19:47.996544","REF_FRAME":"TEME","OBJECT_ID":"2020-025AQ","APOAPSIS":"548.873","MEAN_ANOMALY":"282.6094","MEAN_MOTION":"15.06382057","RA_OF_ASC_NODE":"194.9701","FILE":"3238376","REV_AT_EPOCH":"9207","NORAD_CAT_ID":"45569","CENTER_NAME":"EARTH","BSTAR":"0.00004559300000","MEAN_ELEMENT_THEORY":"SGP4","PERIOD":"95.593","DECAY_DATE":null,"RCS_SIZE":"LARGE","TLE_LINE2":"2 45569  53.0534 194.9701 0002317  77.5154 282.6094 15.06382057 92070","CLASSIFICATION_TYPE":"U","SEMIMAJOR_AXIS":"6925.404","TLE_LINE1":"1 45569U 20025AQ  21346.88874996  .00000397  00000-0  45593-4 0  9992","ELEMENT_SET_NO":"999","GP_ID":"191584626","OBJECT_TYPE":"PAYLOAD","OBJECT_NAME":"STARLINK-1366","MEAN_MOTION_DDOT":"0.0000000000000"},{"APOAPSIS":"549.031","REF_FRAME":"TEME","OBJECT_ID":"2020-025AR","EPOCH":"2021-12-12T21:09:10.427616","TIME_SYSTEM":"UTC","EPHEMERIS_TYPE":"0","INCLINATION":"53.0530","SITE":"AFETR","ARG_OF_PERICENTER":"75.8774","COUNTRY_CODE":"US","PERIAPSIS":"545.396","MEAN_MOTION_DOT":"0.00000429","LAUNCH_DATE":"2020-04-22","ECCENTRICITY":"0.00026240","OBJECT_NAME":"STARLINK-1376","MEAN_MOTION_DDOT":"0.0000000000000","OBJECT_TYPE":"PAYLOAD","TLE_LINE1":"1 45570U 20025AR  21346.88137069  .00000429  00000-0  47733-4 0  9991","ELEMENT_SET_NO":"999","SEMIMAJOR_AXIS":"6925.348","GP_ID":"191584878","CLASSIFICATION_TYPE":"U","TLE_LINE2":"2 45570  53.0530 195.0016 0002624  75.8774 284.2506 15.06400036 92073","BSTAR":"0.00004773300000","MEAN_ELEMENT_THEORY":"SGP4","RCS_SIZE":"LARGE","DECAY_DATE":null,"PERIOD":"95.592","NORAD_CAT_ID":"45570","CENTER_NAME":"EARTH","REV_AT_EPOCH":"9207","RA_OF_ASC_NODE":"195.0016","FILE":"3238376","MEAN_MOTION":"15.06400036","MEAN_ANOMALY":"284.2506"},{"PERIAPSIS":"545.739","MEAN_MOTION_DOT":"0.00000322","COUNTRY_CODE":"US","ECCENTRICITY":"0.00021860","LAUNCH_DATE":"2020-04-22","TIME_SYSTEM":"UTC","EPOCH":"2021-12-12T21:31:45.266016","REF_FRAME":"TEME","OBJECT_ID":"2020-025AS","APOAPSIS":"548.766","ARG_OF_PERICENTER":"81.4138","SITE":"AFETR","EPHEMERIS_TYPE":"0","INCLINATION":"53.0537","RA_OF_ASC_NODE":"184.9417","FILE":"3238376","REV_AT_EPOCH":"9223","NORAD_CAT_ID":"45571","CENTER_NAME":"EARTH","BSTAR":"0.00004057400000","MEAN_ELEMENT_THEORY":"SGP4","PERIOD":"95.593","DECAY_DATE":null,"RCS_SIZE":"LARGE","MEAN_ANOMALY":"278.7098","MEAN_MOTION":"15.06387279","OBJECT_TYPE":"PAYLOAD","OBJECT_NAME":"STARLINK-1261","MEAN_MOTION_DDOT":"0.0000000000000","CLASSIFICATION_TYPE":"U","TLE_LINE2":"2 45571  53.0537 184.9417 0002186  81.4138 278.7098 15.06387279 92238","TLE_LINE1":"1 45571U 20025AS  21346.89705169  .00000322  00000-0  40574-4 0  9993","SEMIMAJOR_AXIS":"6925.388","ELEMENT_SET_NO":"999","GP_ID":"191585124"}];
